start=new Date('2023-06-18T00:00:00.000Z').valueOf();
sats=[{"LAUNCH_DATE":"2022-10-20","EPHEMERIS_TYPE":"0","MEAN_MOTION_DDOT":"0.0000000000000","GP_ID":"234171987","COUNTRY_CODE":"US","OBJECT_NAME":"STARLINK-5222","TIME_SYSTEM":"UTC","TLE_LINE1":"1 54068U 22136T   23168.61808578 -.00000123  00000-0  10372-4 0  9994","REF_FRAME":"TEME","PERIAPSIS":"539.036","ELEMENT_SET_NO":"999","DECAY_DATE":null,"RCS_SIZE":"LARGE","SEMIMAJOR_AXIS":"6917.897","RA_OF_ASC_NODE":"135.4710","OBJECT_ID":"2022-136T","EPOCH":"2023-06-17T14:50:02.611392","CENTER_NAME":"EARTH","INCLINATION":"53.2153","FILE":"3935891","APOAPSIS":"540.488","MEAN_ANOMALY":"269.4598","CLASSIFICATION_TYPE":"U","REV_AT_EPOCH":"3647","MEAN_ELEMENT_THEORY":"SGP4","MEAN_MOTION":"15.08834552","SITE":"AFETR","ECCENTRICITY":"0.00010500","TLE_LINE2":"2 54068  53.2153 135.4710 0001050  90.6514 269.4598 15.08834552 36470","MEAN_MOTION_DOT":"-0.00000123","ARG_OF_PERICENTER":"90.6514","BSTAR":"0.00001037200000","NORAD_CAT_ID":"54068","OBJECT_TYPE":"PAYLOAD","PERIOD":"95.438"},{"OBJECT_TYPE":"PAYLOAD","BSTAR":"-0.00001777400000","NORAD_CAT_ID":"54069","ARG_OF_PERICENTER":"86.7028","MEAN_MOTION_DOT":"-0.00000571","TLE_LINE2":"2 54069  53.2162 135.3817 0001398  86.7028 273.4124 15.08832642 36477","PERIOD":"95.438","REV_AT_EPOCH":"3647","MEAN_ANOMALY":"273.4124","CLASSIFICATION_TYPE":"U","APOAPSIS":"540.735","EPOCH":"2023-06-17T14:28:49.300896","CENTER_NAME":"EARTH","INCLINATION":"53.2162","FILE":"3935891","ECCENTRICITY":"0.00013980","MEAN_MOTION":"15.08832642","SITE":"AFETR","MEAN_ELEMENT_THEORY":"SGP4","PERIAPSIS":"538.801","REF_FRAME":"TEME","SEMIMAJOR_AXIS":"6917.903","RA_OF_ASC_NODE":"135.3817","OBJECT_ID":"2022-136U","DECAY_DATE":null,"RCS_SIZE":"LARGE","ELEMENT_SET_NO":"999","COUNTRY_CODE":"US","GP_ID":"234172739","EPHEMERIS_TYPE":"0","MEAN_MOTION_DDOT":"0.0000000000000","LAUNCH_DATE":"2022-10-20","TLE_LINE1":"1 54069U 22136U   23168.60334839 -.00000571  00000-0 -17774-4 0  9999","TIME_SYSTEM":"UTC","OBJECT_NAME":"STARLINK-5223"},{"PERIOD":"95.438","NORAD_CAT_ID":"54070","BSTAR":"0.00000646250000","OBJECT_TYPE":"PAYLOAD","TLE_LINE2":"2 54070  53.2153 135.4339 0001116  90.3421 269.7699 15.08835421 36478","MEAN_MOTION_DOT":"-0.00000185","ARG_OF_PERICENTER":"90.3421","ECCENTRICITY":"0.00011160","MEAN_ELEMENT_THEORY":"SGP4","MEAN_MOTION":"15.08835421","SITE":"AFETR","CLASSIFICATION_TYPE":"U","MEAN_ANOMALY":"269.7699","REV_AT_EPOCH":"3647","FILE":"3935891","INCLINATION":"53.2153","EPOCH":"2023-06-17T14:40:48.564480","CENTER_NAME":"EARTH","APOAPSIS":"540.531","OBJECT_ID":"2022-136V","RA_OF_ASC_NODE":"135.4339","SEMIMAJOR_AXIS":"6917.894","ELEMENT_SET_NO":"999","RCS_SIZE":"LARGE","DECAY_DATE":null,"PERIAPSIS":"538.987","REF_FRAME":"TEME","TLE_LINE1":"1 54070U 22136V   23168.61167320 -.00000185  00000-0  64625-5 0  9999","OBJECT_NAME":"STARLINK-5181","TIME_SYSTEM":"UTC","GP_ID":"234173489","COUNTRY_CODE":"US","LAUNCH_DATE":"2022-10-20","MEAN_MOTION_DDOT":"0.0000000000000","EPHEMERIS_TYPE":"0"},{"MEAN_MOTION_DOT":"-0.00000034","TLE_LINE2":"2 54071  53.2156 135.4027 0000839  82.3674 277.7413 15.08834268 36479","ARG_OF_PERICENTER":"82.3674","BSTAR":"0.00001595100000","NORAD_CAT_ID":"54071","OBJECT_TYPE":"PAYLOAD","PERIOD":"95.438","EPOCH":"2023-06-17T14:34:07.328064","CENTER_NAME":"EARTH","FILE":"3935891","INCLINATION":"53.2156","APOAPSIS":"540.343","MEAN_ANOMALY":"277.7413","CLASSIFICATION_TYPE":"U","REV_AT_EPOCH":"3647","MEAN_ELEMENT_THEORY":"SGP4","MEAN_MOTION":"15.08834268","SITE":"AFETR","ECCENTRICITY":"0.00008390","REF_FRAME":"TEME","PERIAPSIS":"539.182","ELEMENT_SET_NO":"999","DECAY_DATE":null,"RCS_SIZE":"LARGE","SEMIMAJOR_AXIS":"6917.898","OBJECT_ID":"2022-136W","RA_OF_ASC_NODE":"135.4027","LAUNCH_DATE":"2022-10-20","EPHEMERIS_TYPE":"0","MEAN_MOTION_DDOT":"0.0000000000000","GP_ID":"234172237","COUNTRY_CODE":"US","OBJECT_NAME":"STARLINK-5168","TIME_SYSTEM":"UTC","TLE_LINE1":"1 54071U 22136W   23168.60702926 -.00000034  00000-0  15951-4 0  9996"},{"ECCENTRICITY":"0.00014120","MEAN_ELEMENT_THEORY":"SGP4","SITE":"AFETR","MEAN_MOTION":"15.08849142","MEAN_ANOMALY":"261.9509","CLASSIFICATION_TYPE":"U","REV_AT_EPOCH":"3651","FILE":"3935891","INCLINATION":"53.2182","CENTER_NAME":"EARTH","EPOCH":"2023-06-17T21:00:58.776192","APOAPSIS":"540.694","PERIOD":"95.437","NORAD_CAT_ID":"54072","BSTAR":"0.00004422000000","OBJECT_TYPE":"PAYLOAD","TLE_LINE2":"2 54072  53.2182 134.2464 0001412  98.1643 261.9509 15.08849142 36513","MEAN_MOTION_DOT":"0.00000416","ARG_OF_PERICENTER":"98.1643","TLE_LINE1":"1 54072U 22136X   23168.87568028  .00000416  00000-0  44220-4 0  9993","OBJECT_NAME":"STARLINK-5144","TIME_SYSTEM":"UTC","GP_ID":"234172487","COUNTRY_CODE":"US","LAUNCH_DATE":"2022-10-20","MEAN_MOTION_DDOT":"0.0000000000000","EPHEMERIS_TYPE":"0","OBJECT_ID":"2022-136X","RA_OF_ASC_NODE":"134.2464","SEMIMAJOR_AXIS":"6917.852","ELEMENT_SET_NO":"999","RCS_SIZE":"LARGE","DECAY_DATE":null,"PERIAPSIS":"538.741","REF_FRAME":"TEME"},{"REF_FRAME":"TEME","PERIAPSIS":"538.719","ELEMENT_SET_NO":"999","RCS_SIZE":"LARGE","DECAY_DATE":null,"RA_OF_ASC_NODE":"130.3943","OBJECT_ID":"2022-136Y","SEMIMAJOR_AXIS":"6917.891","LAUNCH_DATE":"2022-10-20","MEAN_MOTION_DDOT":"0.0000000000000","EPHEMERIS_TYPE":"0","GP_ID":"234173239","COUNTRY_CODE":"US","OBJECT_NAME":"STARLINK-5146","TIME_SYSTEM":"UTC","TLE_LINE1":"1 54073U 22136Y   23168.60196639  .00000242  00000-0  33307-4 0  9991","MEAN_MOTION_DOT":"0.00000242","TLE_LINE2":"2 54073  53.2154 130.3943 0001499  94.6591 265.4572 15.08836535 36544","ARG_OF_PERICENTER":"94.6591","NORAD_CAT_ID":"54073","BSTAR":"0.00003330700000","OBJECT_TYPE":"PAYLOAD","PERIOD":"95.438","INCLINATION":"53.2154","FILE":"3935891","EPOCH":"2023-06-17T14:26:49.896096","CENTER_NAME":"EARTH","APOAPSIS":"540.793","CLASSIFICATION_TYPE":"U","MEAN_ANOMALY":"265.4572","REV_AT_EPOCH":"3654","MEAN_ELEMENT_THEORY":"SGP4","MEAN_MOTION":"15.08836535","SITE":"AFETR","ECCENTRICITY":"0.00014990"},{"MEAN_MOTION_DOT":"-0.00001926","TLE_LINE2":"2 54074  53.2166 135.3582 0001576  91.1653 268.9520 15.08825988 36472","ARG_OF_PERICENTER":"91.1653","BSTAR":"-0.00010300000000","NORAD_CAT_ID":"54074","OBJECT_TYPE":"PAYLOAD","PERIOD":"95.438","CENTER_NAME":"EARTH","EPOCH":"2023-06-17T14:23:31.568352","INCLINATION":"53.2166","FILE":"3935891","APOAPSIS":"540.878","CLASSIFICATION_TYPE":"U","MEAN_ANOMALY":"268.9520","REV_AT_EPOCH":"3647","MEAN_ELEMENT_THEORY":"SGP4","SITE":"AFETR","MEAN_MOTION":"15.08825988","ECCENTRICITY":"0.00015760","REF_FRAME":"TEME","PERIAPSIS":"538.698","ELEMENT_SET_NO":"999","DECAY_DATE":null,"RCS_SIZE":"LARGE","SEMIMAJOR_AXIS":"6917.923","RA_OF_ASC_NODE":"135.3582","OBJECT_ID":"2022-136Z","LAUNCH_DATE":"2022-10-20","EPHEMERIS_TYPE":"0","MEAN_MOTION_DDOT":"0.0000000000000","GP_ID":"234173491","COUNTRY_CODE":"US","OBJECT_NAME":"STARLINK-5192","TIME_SYSTEM":"UTC","TLE_LINE1":"1 54074U 22136Z   23168.59967093 -.00001926  00000-0 -10300-3 0  9999"},{"COUNTRY_CODE":"US","GP_ID":"234173490","MEAN_MOTION_DDOT":"0.0000000000000","EPHEMERIS_TYPE":"0","LAUNCH_DATE":"2022-10-20","TLE_LINE1":"1 54075U 22136AA  23168.59828911  .00002244  00000-0  15911-3 0  9990","TIME_SYSTEM":"UTC","OBJECT_NAME":"STARLINK-5212","PERIAPSIS":"538.919","REF_FRAME":"TEME","OBJECT_ID":"2022-136AA","RA_OF_ASC_NODE":"130.3662","SEMIMAJOR_AXIS":"6917.945","RCS_SIZE":"LARGE","DECAY_DATE":null,"ELEMENT_SET_NO":"999","REV_AT_EPOCH":"3654","CLASSIFICATION_TYPE":"U","MEAN_ANOMALY":"257.6624","APOAPSIS":"540.701","INCLINATION":"53.2159","FILE":"3935891","CENTER_NAME":"EARTH","EPOCH":"2023-06-17T14:21:32.179104","ECCENTRICITY":"0.00012880","MEAN_MOTION":"15.08818717","SITE":"AFETR","MEAN_ELEMENT_THEORY":"SGP4","OBJECT_TYPE":"PAYLOAD","NORAD_CAT_ID":"54075","BSTAR":"0.00015911000000","ARG_OF_PERICENTER":"102.4512","TLE_LINE2":"2 54075  53.2159 130.3662 0001288 102.4512 257.6624 15.08818717 36549","MEAN_MOTION_DOT":"0.00002244","PERIOD":"95.439"},{"COUNTRY_CODE":"US","GP_ID":"234172489","MEAN_MOTION_DDOT":"0.0000000000000","EPHEMERIS_TYPE":"0","LAUNCH_DATE":"2022-10-20","TLE_LINE1":"1 54076U 22136AB  23168.86094211 -.00001138  00000-0 -53444-4 0  9996","TIME_SYSTEM":"UTC","OBJECT_NAME":"STARLINK-5201","PERIAPSIS":"538.897","REF_FRAME":"TEME","RA_OF_ASC_NODE":"134.1455","OBJECT_ID":"2022-136AB","SEMIMAJOR_AXIS":"6917.914","RCS_SIZE":"LARGE","DECAY_DATE":null,"ELEMENT_SET_NO":"999","REV_AT_EPOCH":"3651","CLASSIFICATION_TYPE":"U","MEAN_ANOMALY":"266.1247","APOAPSIS":"540.661","INCLINATION":"53.2156","FILE":"3935891","EPOCH":"2023-06-17T20:39:45.398304","CENTER_NAME":"EARTH","ECCENTRICITY":"0.00012750","MEAN_MOTION":"15.08829154","SITE":"AFETR","MEAN_ELEMENT_THEORY":"SGP4","OBJECT_TYPE":"PAYLOAD","NORAD_CAT_ID":"54076","BSTAR":"-0.00005344400000","ARG_OF_PERICENTER":"93.9891","MEAN_MOTION_DOT":"-0.00001138","TLE_LINE2":"2 54076  53.2156 134.1455 0001275  93.9891 266.1247 15.08829154 36519","PERIOD":"95.438"},{"PERIOD":"95.437","ARG_OF_PERICENTER":"97.6446","MEAN_MOTION_DOT":"0.00000926","TLE_LINE2":"2 54077  53.2170 117.4940 0001102  97.6446 262.4671 15.08841511 37168","OBJECT_TYPE":"PAYLOAD","BSTAR":"0.00007622300000","NORAD_CAT_ID":"54077","MEAN_MOTION":"15.08841511","SITE":"AFETR","MEAN_ELEMENT_THEORY":"SGP4","ECCENTRICITY":"0.00011020","APOAPSIS":"540.503","EPOCH":"2023-06-17T03:18:27.801792","CENTER_NAME":"EARTH","INCLINATION":"53.2170","FILE":"3935864","REV_AT_EPOCH":"3716","CLASSIFICATION_TYPE":"U","MEAN_ANOMALY":"262.4671","DECAY_DATE":null,"RCS_SIZE":"LARGE","ELEMENT_SET_NO":"999","SEMIMAJOR_AXIS":"6917.876","OBJECT_ID":"2022-136AC","RA_OF_ASC_NODE":"117.4940","REF_FRAME":"TEME","PERIAPSIS":"538.978","TIME_SYSTEM":"UTC","OBJECT_NAME":"STARLINK-5171","TLE_LINE1":"1 54077U 22136AC  23168.13782178  .00000926  00000-0  76223-4 0  9995","EPHEMERIS_TYPE":"0","MEAN_MOTION_DDOT":"0.0000000000000","LAUNCH_DATE":"2022-10-20","COUNTRY_CODE":"US","GP_ID":"234148781"}];
